[{"OBJECT_NAME":"ONEWEB-0446","OBJECT_ID":"2022-012U","EPOCH":"2025-08-09T09:40:21.512064","MEAN_MOTION":13.10376731,"ECCENTRICITY":0.0001536,"INCLINATION":87.879,"RA_OF_ASC_NODE":98.4782,"ARG_OF_PERICENTER":76.5222,"MEAN_ANOMALY":283.6076,"EPHEMERIS_TYPE":0,"CLASSIFICATION_TYPE":"U","NORAD_CAT_ID":51640,"ELEMENT_SET_NO":999,"REV_AT_EPOCH":16849,"BSTAR":0.00081667,"MEAN_MOTION_DOT":2.98e-6,"MEAN_MOTION_DDOT":0},{"OBJECT_NAME":"ONEWEB-0448","OBJECT_ID":"2022-012V","EPOCH":"2025-08-09T09:47:30.700608","MEAN_MOTION":13.1037707,"ECCENTRICITY":0.0001809,"INCLINATION":87.8789,"RA_OF_ASC_NODE":98.4767,"ARG_OF_PERICENTER":79.1318,"MEAN_ANOMALY":281.0013,"EPHEMERIS_TYPE":0,"CLASSIFICATION_TYPE":"U","NORAD_CAT_ID":51641,"ELEMENT_SET_NO":999,"REV_AT_EPOCH":16846,"BSTAR":0.0012924,"MEAN_MOTION_DOT":4.64e-6,"MEAN_MOTION_DDOT":0},{"OBJECT_NAME":"ONEWEB-0449","OBJECT_ID":"2022-012W","EPOCH":"2025-08-09T09:54:42.863040","MEAN_MOTION":13.10374406,"ECCENTRICITY":0.0001957,"INCLINATION":87.8783,"RA_OF_ASC_NODE":98.4479,"ARG_OF_PERICENTER":92.886,"MEAN_ANOMALY":267.2492,"EPHEMERIS_TYPE":0,"CLASSIFICATION_TYPE":"U","NORAD_CAT_ID":51642,"ELEMENT_SET_NO":999,"REV_AT_EPOCH":16847,"BSTAR":0.0018521,"MEAN_MOTION_DOT":6.59e-6,"MEAN_MOTION_DDOT":0},{"OBJECT_NAME":"ONEWEB-0451","OBJECT_ID":"2022-012X","EPOCH":"2025-08-09T13:36:11.009376","MEAN_MOTION":13.17649063,"ECCENTRICITY":0.0001808,"INCLINATION":87.9028,"RA_OF_ASC_NODE":67.8441,"ARG_OF_PERICENTER":90.8184,"MEAN_ANOMALY":269.3155,"EPHEMERIS_TYPE":0,"CLASSIFICATION_TYPE":"U","NORAD_CAT_ID":51643,"ELEMENT_SET_NO":999,"REV_AT_EPOCH":17262,"BSTAR":0.00017704,"MEAN_MOTION_DOT":8.2e-7,"MEAN_MOTION_DDOT":0},{"OBJECT_NAME":"ONEWEB-0452","OBJECT_ID":"2022-012Y","EPOCH":"2025-08-09T13:33:45.528192","MEAN_MOTION":13.17648709,"ECCENTRICITY":0.0002012,"INCLINATION":87.9024,"RA_OF_ASC_NODE":67.9091,"ARG_OF_PERICENTER":91.3215,"MEAN_ANOMALY":268.8147,"EPHEMERIS_TYPE":0,"CLASSIFICATION_TYPE":"U","NORAD_CAT_ID":51644,"ELEMENT_SET_NO":999,"REV_AT_EPOCH":17263,"BSTAR":0.00016442,"MEAN_MOTION_DOT":7.7e-7,"MEAN_MOTION_DDOT":0},{"OBJECT_NAME":"ONEWEB-0456","OBJECT_ID":"2022-012AA","EPOCH":"2025-08-09T10:09:03.410496","MEAN_MOTION":13.10371384,"ECCENTRICITY":0.0001864,"INCLINATION":87.8784,"RA_OF_ASC_NODE":98.4039,"ARG_OF_PERICENTER":73.753,"MEAN_ANOMALY":286.3802,"EPHEMERIS_TYPE":0,"CLASSIFICATION_TYPE":"U","NORAD_CAT_ID":51646,"ELEMENT_SET_NO":999,"REV_AT_EPOCH":16851,"BSTAR":0.001838,"MEAN_MOTION_DOT":6.54e-6,"MEAN_MOTION_DDOT":0},{"OBJECT_NAME":"ONEWEB-0457","OBJECT_ID":"2022-012AB","EPOCH":"2025-08-09T13:15:28.980864","MEAN_MOTION":13.10377146,"ECCENTRICITY":0.0001617,"INCLINATION":87.879,"RA_OF_ASC_NODE":98.4365,"ARG_OF_PERICENTER":90.439,"MEAN_ANOMALY":269.6923,"EPHEMERIS_TYPE":0,"CLASSIFICATION_TYPE":"U","NORAD_CAT_ID":51647,"ELEMENT_SET_NO":999,"REV_AT_EPOCH":16853,"BSTAR":6.7846e-5,"MEAN_MOTION_DOT":3.6e-7,"MEAN_MOTION_DDOT":0},{"OBJECT_NAME":"ONEWEB-0458","OBJECT_ID":"2022-012AC","EPOCH":"2025-08-09T13:46:34.189248","MEAN_MOTION":13.10371542,"ECCENTRICITY":0.000192,"INCLINATION":87.8774,"RA_OF_ASC_NODE":98.4059,"ARG_OF_PERICENTER":82.752,"MEAN_ANOMALY":277.3826,"EPHEMERIS_TYPE":0,"CLASSIFICATION_TYPE":"U","NORAD_CAT_ID":51648,"ELEMENT_SET_NO":999,"REV_AT_EPOCH":16979,"BSTAR":0.0018409,"MEAN_MOTION_DOT":6.55e-6,"MEAN_MOTION_DDOT":0},{"OBJECT_NAME":"ONEWEB-0461","OBJECT_ID":"2022-012AD","EPOCH":"2025-08-09T14:05:20.099616","MEAN_MOTION":13.17650713,"ECCENTRICITY":0.000164,"INCLINATION":87.9025,"RA_OF_ASC_NODE":67.8542,"ARG_OF_PERICENTER":86.2236,"MEAN_ANOMALY":273.9083,"EPHEMERIS_TYPE":0,"CLASSIFICATION_TYPE":"U","NORAD_CAT_ID":51649,"ELEMENT_SET_NO":999,"REV_AT_EPOCH":17285,"BSTAR":0.00011343,"MEAN_MOTION_DOT":5.7e-7,"MEAN_MOTION_DDOT":0},{"OBJECT_NAME":"ONEWEB-0463","OBJECT_ID":"2022-012AE","EPOCH":"2025-08-09T13:38:37.248288","MEAN_MOTION":13.17648457,"ECCENTRICITY":0.0001808,"INCLINATION":87.9019,"RA_OF_ASC_NODE":67.9218,"ARG_OF_PERICENTER":87.1709,"MEAN_ANOMALY":272.963,"EPHEMERIS_TYPE":0,"CLASSIFICATION_TYPE":"U","NORAD_CAT_ID":51650,"ELEMENT_SET_NO":999,"REV_AT_EPOCH":17263,"BSTAR":0.00018341,"MEAN_MOTION_DOT":8.4e-7,"MEAN_MOTION_DDOT":0},{"OBJECT_NAME":"ONEWEB-0464","OBJECT_ID":"2022-012AF","EPOCH":"2025-08-09T10:01:52.969152","MEAN_MOTION":13.10373321,"ECCENTRICITY":0.0001935,"INCLINATION":87.879,"RA_OF_ASC_NODE":98.4732,"ARG_OF_PERICENTER":70.424,"MEAN_ANOMALY":289.7096,"EPHEMERIS_TYPE":0,"CLASSIFICATION_TYPE":"U","NORAD_CAT_ID":51651,"ELEMENT_SET_NO":999,"REV_AT_EPOCH":16849,"BSTAR":0.0022212,"MEAN_MOTION_DOT":7.88e-6,"MEAN_MOTION_DDOT":0},{"OBJECT_NAME":"ONEWEB-0468","OBJECT_ID":"2022-012AG","EPOCH":"2025-08-09T08:21:28.906272","MEAN_MOTION":13.10370805,"ECCENTRICITY":0.0001816,"INCLINATION":87.8788,"RA_OF_ASC_NODE":98.4786,"ARG_OF_PERICENTER":77.9885,"MEAN_ANOMALY":282.1446,"EPHEMERIS_TYPE":0,"CLASSIFICATION_TYPE":"U","NORAD_CAT_ID":51652,"ELEMENT_SET_NO":999,"REV_AT_EPOCH":16846,"BSTAR":0.0016989,"MEAN_MOTION_DOT":6.06e-6,"MEAN_MOTION_DDOT":0},{"OBJECT_NAME":"ONEWEB-0473","OBJECT_ID":"2022-012AH","EPOCH":"2025-08-09T09:49:55.716096","MEAN_MOTION":13.10375108,"ECCENTRICITY":0.0001887,"INCLINATION":87.879,"RA_OF_ASC_NODE":98.4696,"ARG_OF_PERICENTER":78.701,"MEAN_ANOMALY":281.433,"EPHEMERIS_TYPE":0,"CLASSIFICATION_TYPE":"U","NORAD_CAT_ID":51653,"ELEMENT_SET_NO":999,"REV_AT_EPOCH":16847,"BSTAR":0.0014884,"MEAN_MOTION_DOT":5.32e-6,"MEAN_MOTION_DDOT":0},{"OBJECT_NAME":"ONEWEB-0474","OBJECT_ID":"2022-012AJ","EPOCH":"2025-08-09T09:37:58.219392","MEAN_MOTION":13.10376301,"ECCENTRICITY":0.000199,"INCLINATION":87.8795,"RA_OF_ASC_NODE":98.4313,"ARG_OF_PERICENTER":75.1118,"MEAN_ANOMALY":285.023,"EPHEMERIS_TYPE":0,"CLASSIFICATION_TYPE":"U","NORAD_CAT_ID":51654,"ELEMENT_SET_NO":999,"REV_AT_EPOCH":16846,"BSTAR":0.00044117,"MEAN_MOTION_DOT":1.67e-6,"MEAN_MOTION_DDOT":0},{"OBJECT_NAME":"ONEWEB-0475","OBJECT_ID":"2022-012AK","EPOCH":"2025-08-09T13:55:37.831872","MEAN_MOTION":13.17650377,"ECCENTRICITY":0.0002549,"INCLINATION":87.9028,"RA_OF_ASC_NODE":67.9005,"ARG_OF_PERICENTER":82.7287,"MEAN_ANOMALY":277.4134,"EPHEMERIS_TYPE":0,"CLASSIFICATION_TYPE":"U","NORAD_CAT_ID":51655,"ELEMENT_SET_NO":999,"REV_AT_EPOCH":17265,"BSTAR":8.3834e-5,"MEAN_MOTION_DOT":4.5e-7,"MEAN_MOTION_DDOT":0},{"OBJECT_NAME":"ONEWEB-0490","OBJECT_ID":"2022-138A","EPOCH":"2025-08-09T10:50:30.169248","MEAN_MOTION":13.19724464,"ECCENTRICITY":0.0001876,"INCLINATION":87.9248,"RA_OF_ASC_NODE":6.9189,"ARG_OF_PERICENTER":88.9838,"MEAN_ANOMALY":271.1509,"EPHEMERIS_TYPE":0,"CLASSIFICATION_TYPE":"U","NORAD_CAT_ID":54113,"ELEMENT_SET_NO":999,"REV_AT_EPOCH":13571,"BSTAR":8.7801e-5,"MEAN_MOTION_DOT":4.8e-7,"MEAN_MOTION_DDOT":0},{"OBJECT_NAME":"ONEWEB-0492","OBJECT_ID":"2022-138B","EPOCH":"2025-08-09T09:37:44.129280","MEAN_MOTION":13.19727095,"ECCENTRICITY":0.0001685,"INCLINATION":87.9243,"RA_OF_ASC_NODE":6.9523,"ARG_OF_PERICENTER":89.5002,"MEAN_ANOMALY":270.6324,"EPHEMERIS_TYPE":0,"CLASSIFICATION_TYPE":"U","NORAD_CAT_ID":54114,"ELEMENT_SET_NO":999,"REV_AT_EPOCH":13571,"BSTAR":5.7043e-5,"MEAN_MOTION_DOT":3.6e-7,"MEAN_MOTION_DDOT":0}]
