ONEWEB-0446             
1 51640U 22012U   25221.40302676  .00000298  00000+0  81667-3 0  9992
2 51640  87.8790  98.4782 0001536  76.5222 283.6076 13.10376731168496
ONEWEB-0448             
1 51641U 22012V   25221.40799422  .00000464  00000+0  12924-2 0  9996
2 51641  87.8789  98.4767 0001809  79.1318 281.0013 13.10377070168463
ONEWEB-0449             
1 51642U 22012W   25221.41299610  .00000659  00000+0  18521-2 0  9997
2 51642  87.8783  98.4479 0001957  92.8860 267.2492 13.10374406168474
ONEWEB-0451             
1 51643U 22012X   25221.56679409  .00000082  00000+0  17704-3 0  9995
2 51643  87.9028  67.8441 0001808  90.8184 269.3155 13.17649063172621
ONEWEB-0452             
1 51644U 22012Y   25221.56511028  .00000077  00000+0  16442-3 0  9990
2 51644  87.9024  67.9091 0002012  91.3215 268.8147 13.17648709172631
ONEWEB-0456             
1 51646U 22012AA  25221.42295614  .00000654  00000+0  18380-2 0  9990
2 51646  87.8784  98.4039 0001864  73.7530 286.3802 13.10371384168514
ONEWEB-0457             
1 51647U 22012AB  25221.55241876  .00000036  00000+0  67846-4 0  9993
2 51647  87.8790  98.4365 0001617  90.4390 269.6923 13.10377146168532
ONEWEB-0458             
1 51648U 22012AC  25221.57400682  .00000655  00000+0  18409-2 0  9994
2 51648  87.8774  98.4059 0001920  82.7520 277.3826 13.10371542169792
ONEWEB-0461             
1 51649U 22012AD  25221.58703819  .00000057  00000+0  11343-3 0  9991
2 51649  87.9025  67.8542 0001640  86.2236 273.9083 13.17650713172857
ONEWEB-0463             
1 51650U 22012AE  25221.56848667  .00000084  00000+0  18341-3 0  9997
2 51650  87.9019  67.9218 0001808  87.1709 272.9630 13.17648457172639
ONEWEB-0464             
1 51651U 22012AF  25221.41797418  .00000788  00000+0  22212-2 0  9991
2 51651  87.8790  98.4732 0001935  70.4240 289.7096 13.10373321168490
ONEWEB-0468             
1 51652U 22012AG  25221.34825123  .00000606  00000+0  16989-2 0  9992
2 51652  87.8788  98.4786 0001816  77.9885 282.1446 13.10370805168469
ONEWEB-0473             
1 51653U 22012AH  25221.40967264  .00000532  00000+0  14884-2 0  9993
2 51653  87.8790  98.4696 0001887  78.7010 281.4330 13.10375108168476
ONEWEB-0474             
1 51654U 22012AJ  25221.40136828  .00000167  00000+0  44117-3 0  9995
2 51654  87.8795  98.4313 0001990  75.1118 285.0230 13.10376301168467
ONEWEB-0475             
1 51655U 22012AK  25221.58029898  .00000045  00000+0  83834-4 0  9998
2 51655  87.9028  67.9005 0002549  82.7287 277.4134 13.17650377172658
ONEWEB-0490             
1 54113U 22138A   25221.45173807  .00000048  00000+0  87801-4 0  9996
2 54113  87.9248   6.9189 0001876  88.9838 271.1509 13.19724464135716
ONEWEB-0492             
1 54114U 22138B   25221.40120520  .00000036  00000+0  57043-4 0  9998
2 54114  87.9243   6.9523 0001685  89.5002 270.6324 13.19727095135714
